{
    "links": {
        "self": "http://www.neowsapp.com/rest/v1/neo/3412706?api_key=iIulBulltgU6a56xZRHN4H3l9WmuAYTsLGpBGhQ2"
    },
    "id": "3412706",
    "neo_reference_id": "3412706",
    "name": "(2008 KO)",
    "designation": "2008 KO",
    "nasa_jpl_url": "http://ssd.jpl.nasa.gov/sbdb.cgi?sstr=3412706",
    "absolute_magnitude_h": 24.4,
    "estimated_diameter": {
        "kilometers": {
            "estimated_diameter_min": 0.0350392641,
            "estimated_diameter_max": 0.0783501764
        },
        "meters": {
            "estimated_diameter_min": 35.0392641108,
            "estimated_diameter_max": 78.3501764334
        },
        "miles": {
            "estimated_diameter_min": 0.0217723826,
            "estimated_diameter_max": 0.0486845275
        },
        "feet": {
            "estimated_diameter_min": 114.9582192654,
            "estimated_diameter_max": 257.0543928497
        }
    },
    "is_potentially_hazardous_asteroid": false,
    "close_approach_data": [
        {
            "close_approach_date": "2008-06-01",
            "close_approach_date_full": "2008-Jun-01 04:03",
            "epoch_date_close_approach": 1212292980000,
            "relative_velocity": {
                "kilometers_per_second": "23.7202234673",
                "kilometers_per_hour": "85392.8044821007",
                "miles_per_hour": "53059.767873892"
            },
            "miss_distance": {
                "astronomical": "0.0113259922",
                "lunar": "4.4058109658",
                "kilometers": "1694344.308756614",
                "miles": "1052816.7337007132"
            },
            "orbiting_body": "Earth"
        }
    ],
    "orbital_data": {
        "orbit_id": "10",
        "orbit_determination_date": "2017-04-06 09:03:25",
        "first_observation_date": "2008-05-27",
        "last_observation_date": "2008-05-31",
        "data_arc_in_days": 4,
        "observations_used": 44,
        "orbit_uncertainty": "8",
        "minimum_orbit_intersection": ".000433755",
        "jupiter_tisserand_invariant": "3.255",
        "epoch_osculation": "2454615.5",
        "eccentricity": ".7376308184070166",
        "semi_major_axis": "2.154914848039645",
        "inclination": "14.70177235433315",
        "ascending_node_longitude": "73.32500246340855",
        "orbital_period": "1155.429887522689",
        "perihelion_distance": ".56538324508273",
        "perihelion_argument": "269.8380784547124",
        "aphelion_distance": "3.744446450996561",
        "perihelion_time": "2454665.583861494459",
        "mean_anomaly": "344.3952538075131",
        "mean_motion": ".311572345399392",
        "equinox": "J2000",
        "orbit_class": {
            "orbit_class_type": "APO",
            "orbit_class_description": "Near-Earth asteroid orbits which cross the Earth’s orbit similar to that of 1862 Apollo",
            "orbit_class_range": "a (semi-major axis) > 1.0 AU; q (perihelion) < 1.017 AU"
        }
    },
    "is_sentry_object": false
}